NORAD_CAT_ID,OBJECT_NAME,OBJECT_TYPE,EPOCH,MEAN_MOTION,ECCENTRICITY,INCLINATION,RA_OF_ASC_NODE,ARG_OF_PERICENTER,MEAN_ANOMALY,BSTAR,MEAN_MOTION_DOT,MEAN_MOTION_DDOT,TLE_LINE0,TLE_LINE1,TLE_LINE2,SEMIMAJOR_AXIS,PERIOD,APOGEE,PERIGEE,DECAYED
55638.0,STARLINK-5507,PAYLOAD,2023-10-18 02:21:25,14.98326491,0.0003005,69.999,247.0486,253.0276,107.0554,-8.089e-05,-1.058e-05,0.0,0 STARLINK-5507,1 55638U 23021L   23291.09821049 -.00001058  00000-0 -80890-4 0  9990,2 55638  69.9990 247.0486 0003005 253.0276 107.0554 14.98326491 37442,6950.204,96.107,574.157,569.98,0.0
55638.0,STARLINK-5507,PAYLOAD,2023-10-18 05:33:42,14.9832028,0.0003134,69.9989,246.7122,265.6842,94.3959,-0.00016216,-2.027e-05,0.0,0 STARLINK-5507,1 55638U 23021L   23291.23173812 -.00002027  00000-0 -16216-3 0  9991,2 55638  69.9989 246.7122 0003134 265.6842  94.3959 14.98320280 37160,6950.223,96.108,574.266,569.91,0.0
55638.0,STARLINK-5507,PAYLOAD,2023-10-19 03:59:34,14.98334613,0.0003151,69.9984,244.3551,269.1533,90.9265,-5.5194e-05,-7.52e-06,0.0,0 STARLINK-5507,1 55638U 23021L   23292.16636896 -.00000752  00000-0 -55194-4 0  9992,2 55638  69.9984 244.3551 0003151 269.1533  90.9265 14.98334613 37303,6950.179,96.107,574.234,569.854,0.0
55638.0,STARLINK-5507,PAYLOAD,2023-10-19 07:11:50,14.98334635,0.0002511,70.0017,244.017,280.8728,79.2149,4.4062e-05,4.33e-06,0.0,0 STARLINK-5507,1 55638U 23021L   23292.29988728  .00000433  00000-0  44062-4 0  9996,2 55638  70.0017 244.0170 0002511 280.8728  79.2149 14.98334635 37622,6950.179,96.107,573.789,570.298,0.0
55638.0,STARLINK-5507,PAYLOAD,2023-10-20 04:01:34,14.98331551,0.0002534,70.0003,241.8308,264.6152,95.4718,0.00023357,2.695e-05,0.0,0 STARLINK-5507,1 55638U 23021L   23293.16776006  .00002695  00000-0  23357-3 0  9992,2 55638  70.0003 241.8308 0002534 264.6152  95.4718 14.98331551 37458,6950.188,96.107,573.814,570.292,0.0
55638.0,STARLINK-5507,PAYLOAD,2023-10-20 07:13:50,14.98335245,0.000262,70.0001,241.4938,265.3942,94.6918,0.00025616,2.965e-05,0.0,0 STARLINK-5507,1 55638U 23021L   23293.30127692  .00002965  00000-0  25616-3 0  9999,2 55638  70.0001 241.4938 0002620 265.3942  94.6918 14.98335245 37774,6950.177,96.107,573.863,570.221,0.0
55638.0,STARLINK-5507,PAYLOAD,2023-10-20 21:39:04,14.98431925,0.0002824,70.0034,239.9771,237.6343,122.4543,-0.0016373,-0.00019626,0.0,0 STARLINK-5507,1 55638U 23021L   23293.90213368 -.00019626  00000-0 -16373-2 0  9994,2 55638  70.0034 239.9771 0002824 237.6343 122.4543 14.98431925 37866,6949.878,96.1,573.705,569.78,0.0
55638.0,STARLINK-5507,PAYLOAD,2023-10-21 02:27:28,14.98325732,0.0002507,70.0011,239.4756,252.9308,107.1577,-0.00016404,-2.049e-05,0.0,0 STARLINK-5507,1 55638U 23021L   23294.10241519 -.00002049  00000-0 -16404-3 0  9993,2 55638  70.0011 239.4756 0002507 252.9308 107.1577 14.98325732 37593,6950.206,96.107,573.814,570.329,0.0
55638.0,STARLINK-5507,PAYLOAD,2023-10-21 07:15:52,14.98330771,0.0002357,70.0012,238.9702,263.6572,96.4318,-9.4459e-05,-1.22e-05,0.0,0 STARLINK-5507,1 55638U 23021L   23294.30269158 -.00001220  00000-0 -94459-4 0  9991,2 55638  70.0012 238.9702 0002357 263.6572  96.4318 14.98330771 37620,6950.191,96.107,573.694,570.417,0.0
55638.0,STARLINK-5507,PAYLOAD,2023-10-21 13:40:24,14.98335658,0.0002569,70.0013,238.2969,266.4332,93.6533,-3.4823e-05,-5.08e-06,0.0,0 STARLINK-5507,1 55638U 23021L   23294.56972548 -.00000508  00000-0 -34823-4 0  9990,2 55638  70.0013 238.2969 0002569 266.4332  93.6533 14.98335658 37963,6950.175,96.107,573.826,570.255,0.0
55638.0,STARLINK-5507,PAYLOAD,2023-10-21 20:04:56,14.98337052,0.0002827,70.0014,237.622,260.3697,99.7143,-1.0321e-05,-2.16e-06,0.0,0 STARLINK-5507,1 55638U 23021L   23294.83676063 -.00000216  00000-0 -10321-4 0  9996,2 55638  70.0014 237.6220 0002827 260.3697  99.7143 14.98337052 37707,6950.171,96.107,574.001,570.071,0.0
55638.0,STARLINK-5507,PAYLOAD,2023-10-21 21:41:03,14.98344941,0.0002597,70.0013,237.454,263.832,96.2543,3.9926e-05,3.84e-06,0.0,0 STARLINK-5507,1 55638U 23021L   23294.90351428  .00000384  00000-0  39926-4 0  9995,2 55638  70.0013 237.4540 0002597 263.8320  96.2543 14.98344941 38010,6950.147,96.106,573.817,570.207,0.0
55638.0,STARLINK-5507,PAYLOAD,2023-10-22 04:05:35,14.98348253,0.0002708,69.9997,236.7789,265.2511,94.8339,0.00012846,1.441e-05,0.0,0 STARLINK-5507,1 55638U 23021L   23295.17054747  .00001441  00000-0  12846-3 0  9995,2 55638  69.9997 236.7789 0002708 265.2511  94.8339 14.98348253 37754,6950.136,96.106,573.884,570.119,0.0
55638.0,STARLINK-5507,PAYLOAD,2023-10-22 05:41:45,14.98321665,0.0002491,70.0004,236.6105,257.1115,102.9766,-0.000222,-2.74e-05,0.0,0 STARLINK-5507,1 55638U 23021L   23295.23733114 -.00002740  00000-0 -22200-3 0  9994,2 55638  70.0004 236.6105 0002491 257.1115 102.9766 14.98321665 37760,6950.219,96.108,573.815,570.352,0.0
55638.0,STARLINK-5507,PAYLOAD,2023-10-22 13:42:24,14.98336225,0.0002193,70.001,235.769,282.3022,77.7891,-7.4593e-05,-9.83e-06,0.0,0 STARLINK-5507,1 55638U 23021L   23295.57111936 -.00000983  00000-0 -74593-4 0  9993,2 55638  70.0010 235.7690 0002193 282.3022  77.7891 14.98336225 38118,6950.174,96.107,573.563,570.514,0.0
55638.0,STARLINK-5507,PAYLOAD,2023-10-22 21:43:06,14.9831278,0.0002823,69.9995,234.9274,267.0722,93.0114,-8.4199e-05,-1.097e-05,0.0,0 STARLINK-5507,1 55638U 23021L   23295.90493316 -.00001097  00000-0 -84199-4 0  9995,2 55638  69.9995 234.9274 0002823 267.0722  93.0114 14.98312780 38167,6950.246,96.108,574.073,570.149,0.0
55638.0,STARLINK-5507,PAYLOAD,2023-10-23 04:07:38,14.98310846,0.0002993,69.9996,234.2539,272.4464,87.6352,-9.4465e-06,-2.06e-06,0.0,0 STARLINK-5507,1 55638U 23021L   23296.17197472 -.00000206  00000-0 -94465-5 0  9998,2 55638  69.9996 234.2539 0002993 272.4464  87.6352 14.98310846 37901,6950.252,96.108,574.197,570.037,0.0
55638.0,STARLINK-5507,PAYLOAD,2023-10-23 20:08:58,14.98331407,0.0003197,69.9996,232.5711,270.6897,89.3895,-0.00012215,-1.55e-05,0.0,0 STARLINK-5507,1 55638U 23021L   23296.83956572 -.00001550  00000-0 -12215-3 0  9999,2 55638  69.9996 232.5711 0003197 270.6897  89.3895 14.98331407 38000,6950.189,96.107,574.276,569.832,0.0
55638.0,STARLINK-5507,PAYLOAD,2023-10-23 21:45:06,14.98336036,0.0002994,69.9996,232.4037,273.5337,86.548,-8.3513e-05,-1.089e-05,0.0,0 STARLINK-5507,1 55638U 23021L   23296.90632207 -.00001089  00000-0 -83513-4 0  9990,2 55638  69.9996 232.4037 0002994 273.5337  86.5480 14.98336036 38311,6950.174,96.107,574.12,569.958,0.0
55638.0,STARLINK-5507,PAYLOAD,2023-10-24 04:09:38,14.98340286,0.0002987,69.9998,231.7304,274.9756,85.1062,-4.105e-05,-5.83e-06,0.0,0 STARLINK-5507,1 55638U 23021L   23297.17335748 -.00000583  00000-0 -41050-4 0  9998,2 55638  69.9998 231.7304 0002987 274.9756  85.1062 14.98340286 38058,6950.161,96.106,574.102,569.95,0.0
55638.0,STARLINK-5507,PAYLOAD,2023-10-24 05:45:46,14.98340954,0.0002967,69.9999,231.562,274.8241,85.2579,-2.41e-05,-3.81e-06,0.0,0 STARLINK-5507,1 55638U 23021L   23297.24011628 -.00000381  00000-0 -24100-4 0  9997,2 55638  69.9999 231.5620 0002967 274.8241  85.2579 14.98340954 38364,6950.159,96.106,574.086,569.962,0.0
55638.0,STARLINK-5507,PAYLOAD,2023-10-25 21:49:08,14.98329593,0.0002904,69.9998,227.3538,269.9809,90.1017,-5.6705e-05,-7.69e-06,0.0,0 STARLINK-5507,1 55638U 23021L   23298.90912326 -.00000769  00000-0 -56705-4 0  9992,2 55638  69.9998 227.3538 0002904 269.9809  90.1017 14.98329593 38313,6950.194,96.107,574.077,570.041,0.0
55638.0,STARLINK-5507,PAYLOAD,2023-10-26 05:49:48,14.98332004,0.0002672,70.0004,226.5126,265.4232,94.6622,-2.2119e-05,-3.57e-06,0.0,0 STARLINK-5507,1 55638U 23021L   23299.24292041 -.00000357  00000-0 -22119-4 0  9990,2 55638  70.0004 226.5126 0002672 265.4232  94.6622 14.98332004 38661,6950.187,96.107,573.909,570.195,0.0
55638.0,STARLINK-5507,PAYLOAD,2023-10-26 21:51:08,14.98334954,0.0002805,70.0003,224.8295,265.5383,94.5456,-1.0027e-05,-2.13e-06,0.0,0 STARLINK-5507,1 55638U 23021L   23299.91051662 -.00000213  00000-0 -10027-4 0  9992,2 55638  70.0003 224.8295 0002805 265.5383  94.5456 14.98334954 38765,6950.178,96.107,573.992,570.093,0.0
55638.0,STARLINK-5507,PAYLOAD,2023-10-27 04:15:47,14.98250822,0.0002647,69.9998,224.1566,257.3199,102.7664,-0.0009802,-0.00011745,0.0,0 STARLINK-5507,1 55638U 23021L   23300.17762785 -.00011745  00000-0 -98020-3 0  9998,2 55638  69.9998 224.1566 0002647 257.3199 102.7664 14.98250822 38503,6950.438,96.112,574.143,570.463,0.0
55638.0,STARLINK-5507,PAYLOAD,2023-10-27 12:16:22,14.98315147,0.0002819,70.0009,223.3167,268.8495,91.2342,-0.0001913,-2.374e-05,0.0,0 STARLINK-5507,1 55638U 23021L   23300.51136997 -.00002374  00000-0 -19130-3 0  9999,2 55638  70.0009 223.3167 0002819 268.8495  91.2342 14.98315147 38556,6950.239,96.108,574.063,570.145,0.0
55638.0,STARLINK-5507,PAYLOAD,2023-10-27 21:53:10,14.98316837,0.0002906,70.0004,222.3049,268.1591,91.9235,-0.00010894,-1.392e-05,0.0,0 STARLINK-5507,1 55638U 23021L   23300.91192813 -.00001392  00000-0 -10894-3 0  9999,2 55638  70.0004 222.3049 0002906 268.1591  91.9235 14.98316837 38911,6950.234,96.108,574.118,570.079,0.0
55638.0,STARLINK-5507,PAYLOAD,2023-10-28 01:05:26,14.98319253,0.0003332,69.9993,221.9683,275.2767,84.8012,-8.1891e-05,-1.07e-05,0.0,0 STARLINK-5507,1 55638U 23021L   23301.04544660 -.00001070  00000-0 -81891-4 0  9994,2 55638  69.9993 221.9683 0003332 275.2767  84.8012 14.98319253 38630,6950.226,96.108,574.407,569.775,0.0
55638.0,STARLINK-5507,PAYLOAD,2023-10-28 04:17:42,14.983248,0.0003101,69.9993,221.631,273.9717,86.1088,-3.1487e-05,-4.69e-06,0.0,0 STARLINK-5507,1 55638U 23021L   23301.17896202 -.00000469  00000-0 -31487-4 0  9997,2 55638  69.9993 221.6310 0003101 273.9717  86.1088 14.98324800 38652,6950.209,96.107,574.229,569.919,0.0
55638.0,STARLINK-5507,PAYLOAD,2023-10-28 21:55:11,14.98330751,0.0002719,70.0,219.7795,265.5003,94.5846,-7.2365e-05,-9.56e-06,0.0,0 STARLINK-5507,1 55638U 23021L   23301.91332180 -.00000956  00000-0 -72365-4 0  9990,2 55638  70.0000 219.7795 0002719 265.5003  94.5846 14.98330751 39061,6950.191,96.107,573.945,570.166,0.0
